FLOCK 4S-24             
1 47539U 21006DZ  23033.13708450  .00023395  00000+0  10217-2 0  9990
2 47539  97.4106  93.0711 0009074 184.7535 175.3617 15.22084313112127
FLOCK 4S-20             
1 47540U 21006EA  23033.07095481  .00018423  00000+0  80764-3 0  9999
2 47540  97.4152  93.5392 0008210 184.8301 175.2858 15.22010101111188
HIBER-4                 
1 47541U 21006EB  23033.13418709  .00011088  00000+0  51932-3 0  9994
2 47541  97.4049  92.1758 0009603 192.8805 167.2186 15.19843500112099
FLOCK 4S-25             
1 47542U 21006EC  23031.89494912  .00015081  00000+0  65976-3 0  9996
2 47542  97.4092  91.6301 0008428 192.5637 167.5391 15.22122532111000
FLOCK 4S-1              
1 47543U 21006ED  23033.14239342  .00011326  00000+0  49693-3 0  9997
2 47543  97.4089  92.8552 0008204 181.5427 178.5785 15.22094282111194
FLOCK 4S-30             
1 47544U 21006EE  23032.13629881  .00013160  00000+0  57762-3 0  9991
2 47544  97.4090  91.6040 0005584 200.2804 159.8211 15.22060595112919
FLOCK 4S-23             
1 47545U 21006EF  23033.14537799  .00036347  00000+0  14831-2 0  9991
2 47545  97.4114  93.3130 0008868 193.7332 166.3665 15.24293313113102
COSMOS 2549             
1 47546U 21008A   23033.42101859 -.00000036  00000+0  28359-4 0  9998
2 47546  67.1498  97.1932 0006828 262.5526  97.4764 13.96672365101935
STARLINK-1782           
1 47548U 21009A   23033.46761307 -.00000388  00000+0 -71605-5 0  9999
2 47548  53.0547  49.8749 0001817 113.4727 246.6453 15.06395686110435
STARLINK-1806           
1 47549U 21009B   23033.46392856  .00026717  00000+0  18041-2 0  9993
2 47549  53.0552  49.8938 0001572 101.9538 258.1627 15.06433403110433
STARLINK-1909           
1 47550U 21009C   23033.40955552  .00000977  00000+0  84492-4 0  9992
2 47550  53.0555  40.1317 0001379  98.8050 261.3095 15.06403162110569
STARLINK-1938           
1 47551U 21009D   23033.33768704 -.00000093  00000+0  12683-4 0  9999
2 47551  53.0530  60.4579 0001443  83.9531 276.1622 15.06395306110277
STARLINK-1940           
1 47552U 21009E   23033.47498497  .00006126  00000+0  42981-3 0  9999
2 47552  53.0535  49.8397 0001360 102.3407 257.7735 15.06401022110439
STARLINK-1953           
1 47554U 21009G   23033.54686427 -.00000486  00000+0 -13767-4 0  9997
2 47554  53.0545  69.5098 0001345  85.8170 274.2973 15.06395592110166
STARLINK-1954           
1 47555U 21009H   23033.32294280 -.00000833  00000+0 -37048-4 0  9990
2 47555  53.0564  60.5202 0001537  91.2356 268.8809 15.06397908110278
STARLINK-1955           
1 47556U 21009J   23033.55699377  .00002028  00000+0  15495-3 0  9999
2 47556  53.0538  79.4656 0001354  84.3323 275.7820 15.06404998110027
STARLINK-1956           
1 47557U 21009K   23033.38744332 -.00000419  00000+0 -92275-5 0  9990
2 47557  53.0560  80.2281 0001328  90.7953 269.3188 15.06398587110008
STARLINK-1957           
1 47558U 21009L   23033.43444339 -.00000839  00000+0 -37445-4 0  9994
2 47558  53.0543  50.0256 0001473  91.1782 268.9376 15.06397073110422
STARLINK-1958           
1 47559U 21009M   23033.39850374  .00000069  00000+0  23562-4 0  9998
2 47559  53.0538  40.1872 0001389 103.8374 256.2770 15.06393880110560
STARLINK-1959           
1 47560U 21009N   23033.32383318 -.00000859  00000+0 -38784-4 0  9993
2 47560  53.0554  40.5017 0001569  94.5678 265.5490 15.06396449110553
STARLINK-1960           
1 47561U 21009P   23033.44457599 -.00000235  00000+0  31414-5 0  9991
2 47561  53.0534  59.9751 0001330  97.5972 262.5168 15.06395027110298
STARLINK-1961           
1 47562U 21009Q   23033.45932059 -.00000612  00000+0 -22165-4 0  9994
2 47562  53.0546  59.9159 0001390  89.7338 270.3810 15.06400105110294
STARLINK-1962           
1 47563U 21009R   23033.34874360 -.00000623  00000+0 -22950-4 0  9997
2 47563  53.0535  60.4131 0001282  84.8533 275.2603 15.06395567110270
STARLINK-1963           
1 47564U 21009S   23033.48235597  .00000394  00000+0  45375-4 0  9995
2 47564  53.0526  49.8143 0001354  93.3771 266.7373 15.06398053110434
STARLINK-1964           
1 47565U 21009T   23033.41232709 -.00000364  00000+0 -55176-5 0  9991
2 47565  53.0548  50.1217 0001661 101.7436 258.3739 15.06395216110429
STARLINK-1965           
1 47566U 21009U   23033.40587359  .00000394  00000+0  45313-4 0  9997
2 47566  53.0528  40.1571 0001381  91.8521 268.2627 15.06398204110564
STARLINK-1966           
1 47567U 21009V   23033.44273164 -.00000482  00000+0 -13482-4 0  9990
2 47567  53.0549  79.9921 0001330  87.0526 273.0615 15.06399504110007
STARLINK-1967           
1 47568U 21009W   23033.40218960  .00000249  00000+0  35635-4 0  9993
2 47568  53.0530  80.1758 0001476  69.9639 290.1509 15.06397112110000
STARLINK-1969           
1 47570U 21009Y   23033.39481303  .00003088  00000+0  22607-3 0  9995
2 47570  53.0556  40.2020 0001336  88.9446 271.1696 15.06405340110562
STARLINK-1970           
1 47571U 21009Z   23033.47130074  .00000268  00000+0  36912-4 0  9993
2 47571  53.0530  49.8633 0001511  94.1854 265.9307 15.06397185110430
STARLINK-1971           
1 47572U 21009AA  23033.32017074 -.00001947  00000+0 -11190-3 0  9999
2 47572  53.0536  50.5407 0001445  79.9058 280.2094 15.06390766110417
STARLINK-1975           
1 47573U 21009AB  23033.36439847  .00000660  00000+0  63167-4 0  9991
2 47573  53.0560  50.3269 0001498  96.3894 263.7265 15.06406936110411
STARLINK-1976           
1 47574U 21009AC  23033.44641873 -.00000414  00000+0 -89010-5 0  9990
2 47574  53.0552  79.9735 0001451  86.6276 273.4879 15.06400022110007
STARLINK-1977           
1 47575U 21009AD  23033.43536449 -.00000485  00000+0 -13687-4 0  9996
2 47575  53.0530  80.0253 0001429  90.7992 269.3160 15.06394338110007
STARLINK-1978           
1 47576U 21009AE  23033.40218972  .00013670  00000+0  93422-3 0  9994
2 47576  53.0524  40.1747 0001205  94.4836 265.6291 15.06424794110561
STARLINK-1979           
1 47577U 21009AF  23033.37685007  .00000544  00000+0  55413-4 0  9993
2 47577  53.0542  55.2895 0001436  90.0524 270.0629 15.06395041110359
STARLINK-1980           
1 47578U 21009AG  23033.37085483  .00001829  00000+0  14161-3 0  9997
2 47578  53.0532  60.3153 0001385  96.4252 263.6895 15.06403267110278
STARLINK-1981           
1 47579U 21009AH  23033.35336377  .00010170  00000+0  70178-3 0  9996
2 47579  53.0559  50.3933 0002223 107.4625 252.6607 15.06338998110415
STARLINK-1982           
1 47580U 21009AJ  23033.44089348 -.00001117  00000+0 -56150-4 0  9999
2 47580  53.0573  59.9877 0000973  90.5496 269.5605 15.06395127110280
STARLINK-1984           
1 47581U 21009AK  23033.28792322 -.00000075  00000+0  13884-4 0  9993
2 47581  53.0547  40.6818 0001319  95.6012 264.5127 15.06397221110549
STARLINK-1986           
1 47582U 21009AL  23033.47406098  .00000390  00000+0  45097-4 0  9997
2 47582  53.0532  59.8469 0001523  92.2070 267.9093 15.06401396110292
STARLINK-1987           
1 47583U 21009AM  23033.38560574 -.00001212  00000+0 -62513-4 0  9996
2 47583  53.0540  60.2485 0001529  89.9556 270.1608 15.06395043110282
STARLINK-1989           
1 47585U 21009AP  23033.34505748  .00001098  00000+0  92621-4 0  9999
2 47585  53.0531  60.4182 0001166  75.9357 284.1762 15.06394697110270
STARLINK-1990           
1 47586U 21009AQ  23033.52750511 -.00000153  00000+0  85964-5 0  9995
2 47586  53.0537  79.6083 0001392  92.5643 267.5505 15.06404796110028
STARLINK-1991           
1 47587U 21009AR  23033.45655220  .00001581  00000+0  12501-3 0  9999
2 47587  53.0538  49.9265 0001352  81.3765 278.7377 15.06399250110433
STARLINK-1993           
1 47588U 21009AS  23033.44826305 -.00000579  00000+0 -20000-4 0  9995
2 47588  53.0552  59.9552 0001357  92.1333 267.9812 15.06398784110295
STARLINK-1994           
1 47589U 21009AT  23033.46668450  .00000840  00000+0  75272-4 0  9993
2 47589  53.0530  59.8839 0001303  96.4064 263.7073 15.06405283110294
STARLINK-1995           
1 47590U 21009AU  23033.39113320 -.00001032  00000+0 -50429-4 0  9991
2 47590  53.0549  80.2240 0001482  86.5888 273.5271 15.06394985110006
STARLINK-1996           
1 47591U 21009AV  23033.46300434 -.00000168  00000+0  75897-5 0  9999
2 47591  53.0543  59.8986 0001394  89.3458 270.7691 15.06401089110296
STARLINK-1997           
1 47592U 21009AW  23033.49433607  .00007796  00000+0  54149-3 0  9990
2 47592  53.0523  79.7507 0001417  75.6981 284.4165 15.06414352110015
STARLINK-1998           
1 47593U 21009AX  23033.46485121 -.00000106  00000+0  11807-4 0  9990
2 47593  53.0547  79.8811 0001362  85.4806 274.6338 15.06395681110011
STARLINK-1999           
1 47594U 21009AY  23033.49802635 -.00000269  00000+0  86295-6 0  9992
2 47594  53.0557  79.7323 0001499  92.6473 267.4687 15.06392208110010
STARLINK-2000           
1 47595U 21009AZ  23033.41693465  .00000146  00000+0  28678-4 0  9996
2 47595  53.0557  80.1007 0001456 103.4192 256.6960 15.06392785110001
STARLINK-2001           
1 47596U 21009BA  23033.42061908 -.00000379  00000+0 -65624-5 0  9992
2 47596  53.0539  80.0873 0001504  90.5312 269.5849 15.06393330110002
STARLINK-2002           
1 47597U 21009BB  23033.47959032  .00007707  00000+0  53570-3 0  9997
2 47597  53.0537  79.8285 0001288  92.6534 267.4603 15.06399222110014
STARLINK-2003           
1 47598U 21009BC  23033.42337702  .00001699  00000+0  13290-3 0  9996
2 47598  53.0531  50.0735 0001463  98.9064 261.2090 15.06402161110437
STARLINK-2004           
1 47599U 21009BD  23033.41324466  .00000717  00000+0  67014-4 0  9993
2 47599  53.0550  40.1145 0001354  93.7299 266.3845 15.06399479110561
STARLINK-2005           
1 47600U 21009BE  23033.24000684 -.00000898  00000+0 -41424-4 0  9999
2 47600  53.0556  40.8610 0001357 104.8778 255.2362 15.06383801110544
STARLINK-2006           
1 47601U 21009BF  23033.28423487  .00000422  00000+0  47257-4 0  9995
2 47601  53.0550  40.6891 0001499  97.7212 262.3947 15.06401100110549
